{
  "type": "FeatureCollection",
  "features": [
    {
      "type": "Feature",
      "properties": {
        "norad_id": 33412,
        "name": "COSMO-SKYMED 3",
        "group": "resource",
        "lat": 10.999459964202094,
        "lon": -154.74122492012387,
        "alt_km": 559.1232449322561,
        "timestamp": "2025-12-22T05:49:03.138929+00:00",
        "meta_object_name": "COSMO-SKYMED 3",
        "meta_object_id": "2008-054A",
        "meta_epoch": "2025-12-21T20:11:48.833088",
        "meta_mean_motion": 15.05431888,
        "meta_eccentricity": 0.0017065,
        "meta_inclination": 97.8462,
        "meta_ra_of_asc_node": 206.3872,
        "meta_arg_of_pericenter": 141.6365,
        "meta_mean_anomaly": 218.6078,
        "meta_ephemeris_type": 0,
        "meta_classification_type": "U",
        "meta_norad_cat_id": 33412,
        "meta_element_set_no": 999,
        "meta_rev_at_epoch": 93024,
        "meta_bstar": 0.00032446,
        "meta_mean_motion_dot": 4.607e-05,
        "meta_mean_motion_ddot": 0,
        "tle_line1": "1 33412U 08054A   25355.84153742  .00004607  00000+0  32446-3 0  9992",
        "tle_line2": "2 33412  97.8462 206.3872 0017065 141.6365 218.6078 15.05431888930247"
      },
      "geometry": {
        "type": "Point",
        "coordinates": [
          -154.74122492012387,
          10.999459964202094
        ]
      }
    },
    {
      "type": "Feature",
      "properties": {
        "norad_id": 33446,
        "name": "YAOGAN-4",
        "group": "resource",
        "lat": -61.82574540713905,
        "lon": -58.68755541199894,
        "alt_km": 618.8969992548609,
        "timestamp": "2025-12-22T05:49:03.138939+00:00",
        "meta_object_name": "YAOGAN-4",
        "meta_object_id": "2008-061A",
        "meta_epoch": "2025-12-21T18:45:45.373824",
        "meta_mean_motion": 14.82706695,
        "meta_eccentricity": 0.0013067,
        "meta_inclination": 97.9195,
        "meta_ra_of_asc_node": 285.7927,
        "meta_arg_of_pericenter": 291.438,
        "meta_mean_anomaly": 68.5439,
        "meta_ephemeris_type": 0,
        "meta_classification_type": "U",
        "meta_norad_cat_id": 33446,
        "meta_element_set_no": 999,
        "meta_rev_at_epoch": 91937,
        "meta_bstar": 0.0001402,
        "meta_mean_motion_dot": 1.079e-05,
        "meta_mean_motion_ddot": 0,
        "tle_line1": "1 33446U 08061A   25355.78177516  .00001079  00000+0  14020-3 0  9993",
        "tle_line2": "2 33446  97.9195 285.7927 0013067 291.4380  68.5439 14.82706695919378"
      },
      "geometry": {
        "type": "Point",
        "coordinates": [
          -58.68755541199894,
          -61.82574540713905
        ]
      }
    },
    {
      "type": "Feature",
      "properties": {
        "norad_id": 33492,
        "name": "GOSAT (IBUKI)",
        "group": "resource",
        "lat": -11.660303241982211,
        "lon": -76.96577168414512,
        "alt_km": 673.3227605246057,
        "timestamp": "2025-12-22T05:49:03.138950+00:00",
        "meta_object_name": "GOSAT (IBUKI)",
        "meta_object_id": "2009-002A",
        "meta_epoch": "2025-12-21T19:07:43.678848",
        "meta_mean_motion": 14.67541487,
        "meta_eccentricity": 9.96e-05,
        "meta_inclination": 98.0772,
        "meta_ra_of_asc_node": 104.2745,
        "meta_arg_of_pericenter": 101.9793,
        "meta_mean_anomaly": 258.1523,
        "meta_ephemeris_type": 0,
        "meta_classification_type": "U",
        "meta_norad_cat_id": 33492,
        "meta_element_set_no": 999,
        "meta_rev_at_epoch": 90544,
        "meta_bstar": 0.00012586,
        "meta_mean_motion_dot": 6.66e-06,
        "meta_mean_motion_ddot": 0,
        "tle_line1": "1 33492U 09002A   25355.79703332  .00000666  00000+0  12586-3 0  9998",
        "tle_line2": "2 33492  98.0772 104.2745 0000996 101.9793 258.1523 14.67541487905448"
      },
      "geometry": {
        "type": "Point",
        "coordinates": [
          -76.96577168414512,
          -11.660303241982211
        ]
      }
    },
    {
      "type": "Feature",
      "properties": {
        "norad_id": 35681,
        "name": "DEIMOS-1",
        "group": "resource",
        "lat": 17.161638564440217,
        "lon": -21.197656634998168,
        "alt_km": 646.0798475289175,
        "timestamp": "2025-12-22T05:49:03.138961+00:00",
        "meta_object_name": "DEIMOS-1",
        "meta_object_id": "2009-041A",
        "meta_epoch": "2025-12-21T17:41:09.848256",
        "meta_mean_motion": 14.74964029,
        "meta_eccentricity": 0.0002574,
        "meta_inclination": 97.7148,
        "meta_ra_of_asc_node": 155.9213,
        "meta_arg_of_pericenter": 65.428,
        "meta_mean_anomaly": 294.7198,
        "meta_ephemeris_type": 0,
        "meta_classification_type": "U",
        "meta_norad_cat_id": 35681,
        "meta_element_set_no": 999,
        "meta_rev_at_epoch": 88072,
        "meta_bstar": 4.6401e-05,
        "meta_mean_motion_dot": 2.65e-06,
        "meta_mean_motion_ddot": 0,
        "tle_line1": "1 35681U 09041A   25355.73691954  .00000265  00000+0  46401-4 0  9992",
        "tle_line2": "2 35681  97.7148 155.9213 0002574  65.4280 294.7198 14.74964029880721"
      },
      "geometry": {
        "type": "Point",
        "coordinates": [
          -21.197656634998168,
          17.161638564440217
        ]
      }
    },
    {
      "type": "Feature",
      "properties": {
        "norad_id": 35682,
        "name": "DUBAISAT-1",
        "group": "resource",
        "lat": 81.04244220263413,
        "lon": 63.91806371692299,
        "alt_km": 645.1740483074273,
        "timestamp": "2025-12-22T05:49:03.138972+00:00",
        "meta_object_name": "DUBAISAT-1",
        "meta_object_id": "2009-041B",
        "meta_epoch": "2025-12-21T19:39:28.471392",
        "meta_mean_motion": 14.74627038,
        "meta_eccentricity": 0.0009228,
        "meta_inclination": 97.9798,
        "meta_ra_of_asc_node": 126.3654,
        "meta_arg_of_pericenter": 281.8795,
        "meta_mean_anomaly": 78.1378,
        "meta_ephemeris_type": 0,
        "meta_classification_type": "U",
        "meta_norad_cat_id": 35682,
        "meta_element_set_no": 999,
        "meta_rev_at_epoch": 87895,
        "meta_bstar": 0.00016077,
        "meta_mean_motion_dot": 1.022e-05,
        "meta_mean_motion_ddot": 0,
        "tle_line1": "1 35682U 09041B   25355.81907953  .00001022  00000+0  16077-3 0  9998",
        "tle_line2": "2 35682  97.9798 126.3654 0009228 281.8795  78.1378 14.74627038878956"
      },
      "geometry": {
        "type": "Point",
        "coordinates": [
          63.91806371692299,
          81.04244220263413
        ]
      }
    },
    {
      "type": "Feature",
      "properties": {
        "norad_id": 35931,
        "name": "OCEANSAT-2",
        "group": "resource",
        "lat": -41.12778104309349,
        "lon": 168.62590881110873,
        "alt_km": 912.4325036713117,
        "timestamp": "2025-12-22T05:49:03.138983+00:00",
        "meta_object_name": "OCEANSAT-2",
        "meta_object_id": "2009-051A",
        "meta_epoch": "2025-12-21T21:53:57.622272",
        "meta_mean_motion": 13.99622956,
        "meta_eccentricity": 0.0015982,
        "meta_inclination": 98.2217,
        "meta_ra_of_asc_node": 355.5823,
        "meta_arg_of_pericenter": 20.9915,
        "meta_mean_anomaly": 339.1905,
        "meta_ephemeris_type": 0,
        "meta_classification_type": "U",
        "meta_norad_cat_id": 35931,
        "meta_element_set_no": 999,
        "meta_rev_at_epoch": 85453,
        "meta_bstar": -4.206e-05,
        "meta_mean_motion_dot": -9.9e-07,
        "meta_mean_motion_ddot": 0,
        "tle_line1": "1 35931U 09051A   25355.91247248 -.00000099  00000+0 -42060-4 0  9998",
        "tle_line2": "2 35931  98.2217 355.5823 0015982  20.9915 339.1905 13.99622956854531"
      },
      "geometry": {
        "type": "Point",
        "coordinates": [
          168.62590881110873,
          -41.12778104309349
        ]
      }
    },
    {
      "type": "Feature",
      "properties": {
        "norad_id": 35946,
        "name": "WORLDVIEW-2 (WV-2)",
        "group": "resource",
        "lat": -24.662372089141638,
        "lon": -116.73034577951954,
        "alt_km": 774.7671553455702,
        "timestamp": "2025-12-22T05:49:03.138993+00:00",
        "meta_object_name": "WORLDVIEW-2 (WV-2)",
        "meta_object_id": "2009-055A",
        "meta_epoch": "2025-12-21T18:50:47.075712",
        "meta_mean_motion": 14.37727693,
        "meta_eccentricity": 0.0004868,
        "meta_inclination": 98.4777,
        "meta_ra_of_asc_node": 66.7457,
        "meta_arg_of_pericenter": 48.4665,
        "meta_mean_anomaly": 311.6939,
        "meta_ephemeris_type": 0,
        "meta_classification_type": "U",
        "meta_norad_cat_id": 35946,
        "meta_element_set_no": 999,
        "meta_rev_at_epoch": 85015,
        "meta_bstar": 6.0265e-05,
        "meta_mean_motion_dot": 1.38e-06,
        "meta_mean_motion_ddot": 0,
        "tle_line1": "1 35946U 09055A   25355.78526708  .00000138  00000+0  60265-4 0  9993",
        "tle_line2": "2 35946  98.4777  66.7457 0004868  48.4665 311.6939 14.37727693850155"
      },
      "geometry": {
        "type": "Point",
        "coordinates": [
          -116.73034577951954,
          -24.662372089141638
        ]
      }
    }
  ]
}